KINEIS-1B               
1 60079U 24114A   26204.81489688  .00000838  00000+0  11584-3 0  9990
2 60079  97.9830 228.8254 0002285  17.6844 342.4447 14.80677488112823
KINEIS-1C               
1 60081U 24114C   26204.84852235  .00000730  00000+0  10189-3 0  9999
2 60081  97.9848 228.7162 0002523  83.8805 276.2694 14.80678607112809
KINEIS-1D               
1 60082U 24114D   26204.84619145  .00000584  00000+0  91471-4 0  9992
2 60082  97.9886 224.5827 0002956  85.2293 274.9254 14.76370894112530
KINEIS-1E               
1 60083U 24114E   26204.86620556  .00001020  00000+0  13935-3 0  9997
2 60083  97.8950 227.7071 0004239  91.8955 268.2743 14.80706642112811
KINEIS-1A               
1 60084U 24114F   26204.83213775  .00000878  00000+0  12088-3 0  9994
2 60084  97.8924 227.7643 0004898  40.8053 319.3526 14.80693263112813
KINEIS-3C               
1 61220U 24172A   26204.22818170  .00001555  00000+0  25382-3 0  9998
2 61220  98.0430 293.7449 0002391  69.5017 290.6446 14.72309650 98373
KINEIS-3D               
1 61221U 24172B   26204.22147016  .00000994  00000+0  16506-3 0  9997
2 61221  98.0427 293.7495 0002369  63.8083 296.3367 14.72304907 98652
KINEIS-3E               
1 61222U 24172C   26204.68017773  .00001520  00000+0  24834-3 0  9993
2 61222  98.0425 294.1828 0001600  83.9864 276.1525 14.72297231 98724
KINEIS-3A               
1 61223U 24172D   26204.52751398  .00001510  00000+0  24667-3 0  9998
2 61223  98.0422 294.1300 0001582  23.0592 337.0686 14.72330033 98126
KINEIS-3B               
1 61224U 24172E   26204.51021888  .00001512  00000+0  24705-3 0  9997
2 61224  98.0417 294.1345 0000970   4.3036 355.8180 14.72316216 98691
KINEIS-5C               
1 62081U 24219A   26204.82717781  .00000674  00000+0  11418-3 0  9994
2 62081  97.9076   2.6690 0004801 149.1143 211.0348 14.72323520 89146
KINEIS-5D               
1 62082U 24219B   26204.85263367  .00000970  00000+0  16043-3 0  9992
2 62082  97.9189   2.7759 0005887 143.4435 216.7175 14.72506083 89153
KINEIS-5E               
1 62083U 24219C   26204.87161502  .00000578  00000+0  99103-4 0  9996
2 62083  97.9033   2.8017 0007357 139.8681 220.3071 14.72307353 89162
KINEIS-5A               
1 62084U 24219D   26204.84996563  .00003298  00000+0  52937-3 0  9992
2 62084  97.8973   3.0540 0004501 172.1937 187.9341 14.72299953 89165
KINEIS-5B               
1 62085U 24219E   26204.79960995  .00001060  00000+0  15271-3 0  9992
2 62085  98.0099   8.4292 0002944 128.6104 231.5370 14.78399368 89415
KINEIS-2C               
1 62929U 25028B   26204.38144946  .00001305  00000+0  20898-3 0  9996
2 62929  98.1224 258.8128 0004756 138.7705 221.3863 14.73446365 77948
