{"fetched_at":"2026-07-24T07:06:38.450Z","source":"https://celestrak.org/NORAD/elements/gp.php?NAME=KINEIS&FORMAT=JSON","constellation":"kineis","records":[{"OBJECT_NAME":"KINEIS-1B","OBJECT_ID":"2024-114A","EPOCH":"2026-07-23T19:33:27.090432","CLASSIFICATION_TYPE":"U","MEAN_MOTION":14.80677488,"ECCENTRICITY":0.0002285,"INCLINATION":97.983,"RA_OF_ASC_NODE":228.8254,"ARG_OF_PERICENTER":17.6844,"MEAN_ANOMALY":342.4447,"EPHEMERIS_TYPE":0,"NORAD_CAT_ID":60079,"ELEMENT_SET_NO":999,"REV_AT_EPOCH":11282,"BSTAR":0.00011584,"MEAN_MOTION_DOT":0.00000838,"MEAN_MOTION_DDOT":0},{"OBJECT_NAME":"KINEIS-1C","OBJECT_ID":"2024-114C","EPOCH":"2026-07-23T20:21:52.331040","CLASSIFICATION_TYPE":"U","MEAN_MOTION":14.80678607,"ECCENTRICITY":0.0002523,"INCLINATION":97.9848,"RA_OF_ASC_NODE":228.7162,"ARG_OF_PERICENTER":83.8805,"MEAN_ANOMALY":276.2694,"EPHEMERIS_TYPE":0,"NORAD_CAT_ID":60081,"ELEMENT_SET_NO":999,"REV_AT_EPOCH":11280,"BSTAR":0.00010189,"MEAN_MOTION_DOT":0.0000073,"MEAN_MOTION_DDOT":0},{"OBJECT_NAME":"KINEIS-1D","OBJECT_ID":"2024-114D","EPOCH":"2026-07-23T20:18:30.941280","CLASSIFICATION_TYPE":"U","MEAN_MOTION":14.76370894,"ECCENTRICITY":0.0002956,"INCLINATION":97.9886,"RA_OF_ASC_NODE":224.5827,"ARG_OF_PERICENTER":85.2293,"MEAN_ANOMALY":274.9254,"EPHEMERIS_TYPE":0,"NORAD_CAT_ID":60082,"ELEMENT_SET_NO":999,"REV_AT_EPOCH":11253,"BSTAR":0.000091471,"MEAN_MOTION_DOT":0.00000584,"MEAN_MOTION_DDOT":0},{"OBJECT_NAME":"KINEIS-1E","OBJECT_ID":"2024-114E","EPOCH":"2026-07-23T20:47:20.160384","CLASSIFICATION_TYPE":"U","MEAN_MOTION":14.80706642,"ECCENTRICITY":0.0004239,"INCLINATION":97.895,"RA_OF_ASC_NODE":227.7071,"ARG_OF_PERICENTER":91.8955,"MEAN_ANOMALY":268.2743,"EPHEMERIS_TYPE":0,"NORAD_CAT_ID":60083,"ELEMENT_SET_NO":999,"REV_AT_EPOCH":11281,"BSTAR":0.00013935,"MEAN_MOTION_DOT":0.0000102,"MEAN_MOTION_DDOT":0},{"OBJECT_NAME":"KINEIS-1A","OBJECT_ID":"2024-114F","EPOCH":"2026-07-23T19:58:16.701600","CLASSIFICATION_TYPE":"U","MEAN_MOTION":14.80693263,"ECCENTRICITY":0.0004898,"INCLINATION":97.8924,"RA_OF_ASC_NODE":227.7643,"ARG_OF_PERICENTER":40.8053,"MEAN_ANOMALY":319.3526,"EPHEMERIS_TYPE":0,"NORAD_CAT_ID":60084,"ELEMENT_SET_NO":999,"REV_AT_EPOCH":11281,"BSTAR":0.00012088,"MEAN_MOTION_DOT":0.00000878,"MEAN_MOTION_DDOT":0},{"OBJECT_NAME":"KINEIS-3C","OBJECT_ID":"2024-172A","EPOCH":"2026-07-23T05:28:34.898880","CLASSIFICATION_TYPE":"U","MEAN_MOTION":14.7230965,"ECCENTRICITY":0.0002391,"INCLINATION":98.043,"RA_OF_ASC_NODE":293.7449,"ARG_OF_PERICENTER":69.5017,"MEAN_ANOMALY":290.6446,"EPHEMERIS_TYPE":0,"NORAD_CAT_ID":61220,"ELEMENT_SET_NO":999,"REV_AT_EPOCH":9837,"BSTAR":0.00025382,"MEAN_MOTION_DOT":0.00001555,"MEAN_MOTION_DDOT":0},{"OBJECT_NAME":"KINEIS-3D","OBJECT_ID":"2024-172B","EPOCH":"2026-07-23T05:18:55.021824","CLASSIFICATION_TYPE":"U","MEAN_MOTION":14.72304907,"ECCENTRICITY":0.00023692,"INCLINATION":98.0427,"RA_OF_ASC_NODE":293.7495,"ARG_OF_PERICENTER":63.8083,"MEAN_ANOMALY":296.3367,"EPHEMERIS_TYPE":0,"NORAD_CAT_ID":61221,"ELEMENT_SET_NO":999,"REV_AT_EPOCH":9865,"BSTAR":0.00016506469,"MEAN_MOTION_DOT":0.00000994,"MEAN_MOTION_DDOT":0},{"OBJECT_NAME":"KINEIS-3E","OBJECT_ID":"2024-172C","EPOCH":"2026-07-23T16:19:27.355872","CLASSIFICATION_TYPE":"U","MEAN_MOTION":14.72297231,"ECCENTRICITY":0.00016,"INCLINATION":98.0425,"RA_OF_ASC_NODE":294.1828,"ARG_OF_PERICENTER":83.9864,"MEAN_ANOMALY":276.1525,"EPHEMERIS_TYPE":0,"NORAD_CAT_ID":61222,"ELEMENT_SET_NO":999,"REV_AT_EPOCH":9872,"BSTAR":0.00024834,"MEAN_MOTION_DOT":0.0000152,"MEAN_MOTION_DDOT":0},{"OBJECT_NAME":"KINEIS-3A","OBJECT_ID":"2024-172D","EPOCH":"2026-07-23T12:39:37.207872","CLASSIFICATION_TYPE":"U","MEAN_MOTION":14.72330033,"ECCENTRICITY":0.0001582,"INCLINATION":98.0422,"RA_OF_ASC_NODE":294.13,"ARG_OF_PERICENTER":23.0592,"MEAN_ANOMALY":337.0686,"EPHEMERIS_TYPE":0,"NORAD_CAT_ID":61223,"ELEMENT_SET_NO":999,"REV_AT_EPOCH":9812,"BSTAR":0.00024667,"MEAN_MOTION_DOT":0.0000151,"MEAN_MOTION_DDOT":0},{"OBJECT_NAME":"KINEIS-3B","OBJECT_ID":"2024-172E","EPOCH":"2026-07-23T12:14:42.911232","CLASSIFICATION_TYPE":"U","MEAN_MOTION":14.72316216,"ECCENTRICITY":0.000097,"INCLINATION":98.0417,"RA_OF_ASC_NODE":294.1345,"ARG_OF_PERICENTER":4.3036,"MEAN_ANOMALY":355.818,"EPHEMERIS_TYPE":0,"NORAD_CAT_ID":61224,"ELEMENT_SET_NO":999,"REV_AT_EPOCH":9869,"BSTAR":0.00024705,"MEAN_MOTION_DOT":0.00001512,"MEAN_MOTION_DDOT":0},{"OBJECT_NAME":"KINEIS-5C","OBJECT_ID":"2024-219A","EPOCH":"2026-07-23T19:51:08.162784","CLASSIFICATION_TYPE":"U","MEAN_MOTION":14.7232352,"ECCENTRICITY":0.0004801,"INCLINATION":97.9076,"RA_OF_ASC_NODE":2.669,"ARG_OF_PERICENTER":149.1143,"MEAN_ANOMALY":211.0348,"EPHEMERIS_TYPE":0,"NORAD_CAT_ID":62081,"ELEMENT_SET_NO":999,"REV_AT_EPOCH":8914,"BSTAR":0.00011418,"MEAN_MOTION_DOT":0.00000674,"MEAN_MOTION_DDOT":0},{"OBJECT_NAME":"KINEIS-5D","OBJECT_ID":"2024-219B","EPOCH":"2026-07-23T20:27:47.549088","CLASSIFICATION_TYPE":"U","MEAN_MOTION":14.72506083,"ECCENTRICITY":0.0005887,"INCLINATION":97.9189,"RA_OF_ASC_NODE":2.7759,"ARG_OF_PERICENTER":143.4435,"MEAN_ANOMALY":216.7175,"EPHEMERIS_TYPE":0,"NORAD_CAT_ID":62082,"ELEMENT_SET_NO":999,"REV_AT_EPOCH":8915,"BSTAR":0.00016043,"MEAN_MOTION_DOT":0.0000097,"MEAN_MOTION_DDOT":0},{"OBJECT_NAME":"KINEIS-5E","OBJECT_ID":"2024-219C","EPOCH":"2026-07-23T20:55:07.537728","CLASSIFICATION_TYPE":"U","MEAN_MOTION":14.72307353,"ECCENTRICITY":0.0007357,"INCLINATION":97.9033,"RA_OF_ASC_NODE":2.8017,"ARG_OF_PERICENTER":139.8681,"MEAN_ANOMALY":220.3071,"EPHEMERIS_TYPE":0,"NORAD_CAT_ID":62083,"ELEMENT_SET_NO":999,"REV_AT_EPOCH":8916,"BSTAR":0.000099103,"MEAN_MOTION_DOT":0.00000578,"MEAN_MOTION_DDOT":0},{"OBJECT_NAME":"KINEIS-5A","OBJECT_ID":"2024-219D","EPOCH":"2026-07-23T20:23:57.030432","CLASSIFICATION_TYPE":"U","MEAN_MOTION":14.72299953,"ECCENTRICITY":0.0004501,"INCLINATION":97.8973,"RA_OF_ASC_NODE":3.054,"ARG_OF_PERICENTER":172.1937,"MEAN_ANOMALY":187.9341,"EPHEMERIS_TYPE":0,"NORAD_CAT_ID":62084,"ELEMENT_SET_NO":999,"REV_AT_EPOCH":8916,"BSTAR":0.00052937,"MEAN_MOTION_DOT":0.00003298,"MEAN_MOTION_DDOT":0},{"OBJECT_NAME":"KINEIS-5B","OBJECT_ID":"2024-219E","EPOCH":"2026-07-23T19:11:26.299680","CLASSIFICATION_TYPE":"U","MEAN_MOTION":14.78399368,"ECCENTRICITY":0.0002944,"INCLINATION":98.0099,"RA_OF_ASC_NODE":8.4292,"ARG_OF_PERICENTER":128.6104,"MEAN_ANOMALY":231.537,"EPHEMERIS_TYPE":0,"NORAD_CAT_ID":62085,"ELEMENT_SET_NO":999,"REV_AT_EPOCH":8941,"BSTAR":0.00015271,"MEAN_MOTION_DOT":0.0000106,"MEAN_MOTION_DDOT":0},{"OBJECT_NAME":"KINEIS-2C","OBJECT_ID":"2025-028B","EPOCH":"2026-07-23T09:09:17.233344","CLASSIFICATION_TYPE":"U","MEAN_MOTION":14.73446365,"ECCENTRICITY":0.0004756,"INCLINATION":98.1224,"RA_OF_ASC_NODE":258.8128,"ARG_OF_PERICENTER":138.7705,"MEAN_ANOMALY":221.3863,"EPHEMERIS_TYPE":0,"NORAD_CAT_ID":62929,"ELEMENT_SET_NO":999,"REV_AT_EPOCH":7794,"BSTAR":0.00020898,"MEAN_MOTION_DOT":0.00001305,"MEAN_MOTION_DDOT":0}]}
